{"type": "FeatureCollection", "features": [ {"type": "Feature", "properties": {"norad_id": 35023, "name": "COSMOS 2251 DEB", "group": "cosmos-2251-debris", "lat": 65.80830576137296, "lon": -35.71550727908383, "alt_km": 594.3397899643487, "timestamp": "2025-12-26T23:26:42.519441+00:00", "meta": {"OBJECT_NAME": "COSMOS 2251 DEB", "OBJECT_ID": "1993-036AGL", "EPOCH": "2025-12-26T15:15:20.415744", "MEAN_MOTION": 14.95526509, "ECCENTRICITY": 0.0033423, "INCLINATION": 74.0371, "RA_OF_ASC_NODE": 184.5532, "ARG_OF_PERICENTER": 260.5788, "MEAN_ANOMALY": 171.6189, "EPHEMERIS_TYPE": 0, "CLASSIFICATION_TYPE": "U", "NORAD_CAT_ID": 35023, "ELEMENT_SET_NO": 999, "REV_AT_EPOCH": 88487, "BSTAR": 0.0016022, "MEAN_MOTION_DOT": 0.00017965, "MEAN_MOTION_DDOT": 0}, "tle": {"line1": "1 35023U 93036AGL 25360.63565296  .00017965  00000+0  16022-2 0  9992", "line2": "2 35023  74.0371 184.5532 0033423 260.5788 171.6189 14.95526509884870"}}, "geometry": {"type": "Point", "coordinates": [-35.71550727908383, 65.80830576137296]}}, {"type": "Feature", "properties": {"norad_id": 35025, "name": "COSMOS 2251 DEB", "group": "cosmos-2251-debris", "lat": 65.85564400023631, "lon": 175.03674460318854, "alt_km": 703.1376959339996, "timestamp": "2025-12-26T23:26:42.519451+00:00", "meta": {"OBJECT_NAME": "COSMOS 2251 DEB", "OBJECT_ID": "1993-036AGN", "EPOCH": "2025-12-25T12:43:05.392128", "MEAN_MOTION": 14.7277334, "ECCENTRICITY": 0.0085734, "INCLINATION": 73.9378, "RA_OF_ASC_NODE": 37.8677, "ARG_OF_PERICENTER": 308.0127, "MEAN_ANOMALY": 51.3326, "EPHEMERIS_TYPE": 0, "CLASSIFICATION_TYPE": "U", "NORAD_CAT_ID": 35025, "ELEMENT_SET_NO": 999, "REV_AT_EPOCH": 88831, "BSTAR": 0.00045426, "MEAN_MOTION_DOT": 3.041e-05, "MEAN_MOTION_DDOT": 0}, "tle": {"line1": "1 35025U 93036AGN 25359.52992352  .00003041  00000+0  45426-3 0  9998", "line2": "2 35025  73.9378  37.8677 0085734 308.0127  51.3326 14.72773340888316"}}, "geometry": {"type": "Point", "coordinates": [175.03674460318854, 65.85564400023631]}}, {"type": "Feature", "properties": {"norad_id": 35026, "name": "COSMOS 2251 DEB", "group": "cosmos-2251-debris", "lat": 71.0238514644451, "lon": -11.786147529309549, "alt_km": 660.3481391980795, "timestamp": "2025-12-26T23:26:42.519459+00:00", "meta": {"OBJECT_NAME": "COSMOS 2251 DEB", "OBJECT_ID": "1993-036AGP", "EPOCH": "2025-12-25T02:35:01.847328", "MEAN_MOTION": 14.53631376, "ECCENTRICITY": 0.00826322, "INCLINATION": 74.0477, "RA_OF_ASC_NODE": 295.4544, "ARG_OF_PERICENTER": 45.4243, "MEAN_ANOMALY": 335.8431, "EPHEMERIS_TYPE": 0, "CLASSIFICATION_TYPE": "U", "NORAD_CAT_ID": 35026, "ELEMENT_SET_NO": 999, "REV_AT_EPOCH": 88323, "BSTAR": 8.4826771e-05, "MEAN_MOTION_DOT": 3.41e-06, "MEAN_MOTION_DDOT": 0}, "tle": {"line1": "1 35026U 93036AGP 25359.10766027  .00000341  00000+0  84827-4 0  9990", "line2": "2 35026  74.0477 295.4544 0082632  45.4243 335.8431 14.53631376883233"}}, "geometry": {"type": "Point", "coordinates": [-11.786147529309549, 71.0238514644451]}}, {"type": "Feature", "properties": {"norad_id": 35028, "name": "COSMOS 2251 DEB", "group": "cosmos-2251-debris", "lat": -17.251568423449626, "lon": -121.13503481633641, "alt_km": 658.6248498185441, "timestamp": "2025-12-26T23:26:42.519468+00:00", "meta": {"OBJECT_NAME": "COSMOS 2251 DEB", "OBJECT_ID": "1993-036AGR", "EPOCH": "2025-12-26T09:14:11.078016", "MEAN_MOTION": 14.56582839, "ECCENTRICITY": 0.008309, "INCLINATION": 74.0377, "RA_OF_ASC_NODE": 245.0874, "ARG_OF_PERICENTER": 15.167, "MEAN_ANOMALY": 104.3209, "EPHEMERIS_TYPE": 0, "CLASSIFICATION_TYPE": "U", "NORAD_CAT_ID": 35028, "ELEMENT_SET_NO": 999, "REV_AT_EPOCH": 88484, "BSTAR": 9.0149e-05, "MEAN_MOTION_DOT": 3.89e-06, "MEAN_MOTION_DDOT": 0}, "tle": {"line1": "1 35028U 93036AGR 25360.38485044  .00000389  00000+0  90149-4 0  9997", "line2": "2 35028  74.0377 245.0874 0083090  15.1670 104.3209 14.56582839884840"}}, "geometry": {"type": "Point", "coordinates": [-121.13503481633641, -17.251568423449626]}}, {"type": "Feature", "properties": {"norad_id": 35031, "name": "COSMOS 2251 DEB", "group": "cosmos-2251-debris", "lat": 36.55691923437701, "lon": -114.71265981563802, "alt_km": 757.4134855597295, "timestamp": "2025-12-26T23:26:42.519477+00:00", "meta": {"OBJECT_NAME": "COSMOS 2251 DEB", "OBJECT_ID": "1993-036AGU", "EPOCH": "2025-12-26T08:14:40.104672", "MEAN_MOTION": 14.38307542, "ECCENTRICITY": 0.0019397, "INCLINATION": 74.0373, "RA_OF_ASC_NODE": 234.2004, "ARG_OF_PERICENTER": 325.2705, "MEAN_ANOMALY": 34.7182, "EPHEMERIS_TYPE": 0, "CLASSIFICATION_TYPE": "U", "NORAD_CAT_ID": 35031, "ELEMENT_SET_NO": 999, "REV_AT_EPOCH": 65479, "BSTAR": 0.0001513, "MEAN_MOTION_DOT": 4.35e-06, "MEAN_MOTION_DDOT": 0}, "tle": {"line1": "1 35031U 93036AGU 25360.34351973  .00000435  00000+0  15130-3 0  9998", "line2": "2 35031  74.0373 234.2004 0019397 325.2705  34.7182 14.38307542654799"}}, "geometry": {"type": "Point", "coordinates": [-114.71265981563802, 36.55691923437701]}}, {"type": "Feature", "properties": {"norad_id": 35032, "name": "COSMOS 2251 DEB", "group": "cosmos-2251-debris", "lat": -50.214574872960725, "lon": -179.78601765340207, "alt_km": 669.3381204824163, "timestamp": "2025-12-26T23:26:42.519486+00:00", "meta": {"OBJECT_NAME": "COSMOS 2251 DEB", "OBJECT_ID": "1993-036AGV", "EPOCH": "2025-12-26T16:36:24.792768", "MEAN_MOTION": 14.58828543, "ECCENTRICITY": 0.0067379, "INCLINATION": 73.8522, "RA_OF_ASC_NODE": 340.4021, "ARG_OF_PERICENTER": 189.1551, "MEAN_ANOMALY": 347.5932, "EPHEMERIS_TYPE": 0, "CLASSIFICATION_TYPE": "U", "NORAD_CAT_ID": 35032, "ELEMENT_SET_NO": 999, "REV_AT_EPOCH": 87877, "BSTAR": 0.00080948, "MEAN_MOTION_DOT": 3.877e-05, "MEAN_MOTION_DDOT": 0}, "tle": {"line1": "1 35032U 93036AGV 25360.69195362  .00003877  00000+0  80948-3 0  9997", "line2": "2 35032  73.8522 340.4021 0067379 189.1551 347.5932 14.58828543878776"}}, "geometry": {"type": "Point", "coordinates": [-179.78601765340207, -50.214574872960725]}}, {"type": "Feature", "properties": {"norad_id": 35033, "name": "COSMOS 2251 DEB", "group": "cosmos-2251-debris", "lat": -33.870105655424176, "lon": -19.12453374415717, "alt_km": 720.2618922329684, "timestamp": "2025-12-26T23:26:42.519495+00:00", "meta": {"OBJECT_NAME": "COSMOS 2251 DEB", "OBJECT_ID": "1993-036AGW", "EPOCH": "2025-12-19T05:07:27.625152", "MEAN_MOTION": 14.50959586, "ECCENTRICITY": 0.001448, "INCLINATION": 74.0251, "RA_OF_ASC_NODE": 164.3945, "ARG_OF_PERICENTER": 270.8601, "MEAN_ANOMALY": 89.0901, "EPHEMERIS_TYPE": 0, "CLASSIFICATION_TYPE": "U", "NORAD_CAT_ID": 35033, "ELEMENT_SET_NO": 999, "REV_AT_EPOCH": 66021, "BSTAR": 0.00048139, "MEAN_MOTION_DOT": 1.877e-05, "MEAN_MOTION_DDOT": 0}, "tle": {"line1": "1 35033U 93036AGW 25353.21351418  .00001877  00000+0  48139-3 0  9998", "line2": "2 35033  74.0251 164.3945 0014480 270.8601  89.0901 14.50959586660212"}}, "geometry": {"type": "Point", "coordinates": [-19.12453374415717, -33.870105655424176]}}, {"type": "Feature", "properties": {"norad_id": 35038, "name": "COSMOS 2251 DEB", "group": "cosmos-2251-debris", "lat": -56.324535036129674, "lon": -8.295681302124498, "alt_km": 769.1028766100435, "timestamp": "2025-12-26T23:26:42.519504+00:00", "meta": {"OBJECT_NAME": "COSMOS 2251 DEB", "OBJECT_ID": "1993-036AHB", "EPOCH": "2025-12-16T02:43:57.942048", "MEAN_MOTION": 14.25166694, "ECCENTRICITY": 0.01140711, "INCLINATION": 74.1077, "RA_OF_ASC_NODE": 36.5236, "ARG_OF_PERICENTER": 19.3791, "MEAN_ANOMALY": 9.3469, "EPHEMERIS_TYPE": 0, "CLASSIFICATION_TYPE": "U", "NORAD_CAT_ID": 35038, "ELEMENT_SET_NO": 999, "REV_AT_EPOCH": 85617, "BSTAR": 0.00096319549, "MEAN_MOTION_DOT": 2.397e-05, "MEAN_MOTION_DDOT": 0}, "tle": {"line1": "1 35038U 93036AHB 25350.11386507  .00002397  00000+0  96320-3 0  9999", "line2": "2 35038  74.1077  36.5236 0114071  19.3791   9.3469 14.25166694856178"}}, "geometry": {"type": "Point", "coordinates": [-8.295681302124498, -56.324535036129674]}}, {"type": "Feature", "properties": {"norad_id": 35043, "name": "COSMOS 2251 DEB", "group": "cosmos-2251-debris", "lat": -63.98553736742876, "lon": -18.64067804726481, "alt_km": 616.5243733620382, "timestamp": "2025-12-26T23:26:42.519513+00:00", "meta": {"OBJECT_NAME": "COSMOS 2251 DEB", "OBJECT_ID": "1993-036AHG", "EPOCH": "2025-12-25T10:23:08.748096", "MEAN_MOTION": 14.77569208, "ECCENTRICITY": 0.0095113, "INCLINATION": 73.9518, "RA_OF_ASC_NODE": 20.547, "ARG_OF_PERICENTER": 227.6564, "MEAN_ANOMALY": 131.6528, "EPHEMERIS_TYPE": 0, "CLASSIFICATION_TYPE": "U", "NORAD_CAT_ID": 35043, "ELEMENT_SET_NO": 999, "REV_AT_EPOCH": 67606, "BSTAR": 0.003393, "MEAN_MOTION_DOT": 0.00026195, "MEAN_MOTION_DDOT": 0}, "tle": {"line1": "1 35043U 93036AHG 25359.43274014  .00026195  00000+0  33930-2 0  9997", "line2": "2 35043  73.9518  20.5470 0095113 227.6564 131.6528 14.77569208676069"}}, "geometry": {"type": "Point", "coordinates": [-18.64067804726481, -63.98553736742876]}}, {"type": "Feature", "properties": {"norad_id": 35045, "name": "COSMOS 2251 DEB", "group": "cosmos-2251-debris", "lat": 40.42676453995809, "lon": -166.85577393787892, "alt_km": 973.6719105093689, "timestamp": "2025-12-26T23:26:42.519522+00:00", "meta": {"OBJECT_NAME": "COSMOS 2251 DEB", "OBJECT_ID": "1993-036AHJ", "EPOCH": "2025-12-24T19:20:26.125152", "MEAN_MOTION": 14.0041252, "ECCENTRICITY": 0.01839955, "INCLINATION": 73.7191, "RA_OF_ASC_NODE": 31.3925, "ARG_OF_PERICENTER": 271.7742, "MEAN_ANOMALY": 86.2325, "EPHEMERIS_TYPE": 0, "CLASSIFICATION_TYPE": "U", "NORAD_CAT_ID": 35045, "ELEMENT_SET_NO": 999, "REV_AT_EPOCH": 84812, "BSTAR": 0.0006276669, "MEAN_MOTION_DOT": 1.049e-05, "MEAN_MOTION_DDOT": 0}, "tle": {"line1": "1 35045U 93036AHJ 25358.80585793  .00001049  00000+0  62767-3 0  9990", "line2": "2 35045  73.7191  31.3925 0183995 271.7742  86.2325 14.00412520848123"}}, "geometry": {"type": "Point", "coordinates": [-166.85577393787892, 40.42676453995809]}}]}